{
  "type": "FeatureCollection",
  "features": [
    {
      "type": "Feature",
      "properties": {
        "norad_id": 66909,
        "name": "SILVERSAT",
        "group": "stations",
        "lat": 12.789341083977977,
        "lon": 133.27156439405655,
        "alt_km": 411.11195951181344,
        "timestamp": "2025-12-16T15:45:49.753014+00:00",
        "meta_object_name": "SILVERSAT",
        "meta_object_id": "1998-067XV",
        "meta_epoch": "2025-12-15T14:58:08.164704",
        "meta_mean_motion": 15.52037636,
        "meta_eccentricity": 0.00041166,
        "meta_inclination": 51.6296,
        "meta_ra_of_asc_node": 128.048,
        "meta_arg_of_pericenter": 244.867,
        "meta_mean_anomaly": 115.1892,
        "meta_ephemeris_type": 0,
        "meta_classification_type": "U",
        "meta_norad_cat_id": 66909,
        "meta_element_set_no": 999,
        "meta_rev_at_epoch": 206,
        "meta_bstar": 0.00079995468,
        "meta_mean_motion_dot": 0.00048941,
        "meta_mean_motion_ddot": 0,
        "tle_line1": "1 66909U 98067XV  25349.62370561  .00048941  00000+0  79995-3 0  9990",
        "tle_line2": "2 66909  51.6296 128.0480 0004116 244.8670 115.1892 15.52037636  2060"
      },
      "geometry": {
        "type": "Point",
        "coordinates": [
          133.27156439405655,
          12.789341083977977
        ]
      }
    },
    {
      "type": "Feature",
      "properties": {
        "norad_id": 66910,
        "name": "1998-067XW",
        "group": "stations",
        "lat": 20.13044383575804,
        "lon": 139.7740723575288,
        "alt_km": 411.0799817977786,
        "timestamp": "2025-12-16T15:45:49.753027+00:00",
        "meta_object_name": "1998-067XW",
        "meta_object_id": "1998-067XW",
        "meta_epoch": "2025-12-15T16:28:26.170464",
        "meta_mean_motion": 15.52120253,
        "meta_eccentricity": 0.00047674,
        "meta_inclination": 51.6293,
        "meta_ra_of_asc_node": 127.717,
        "meta_arg_of_pericenter": 223.5527,
        "meta_mean_anomaly": 136.5086,
        "meta_ephemeris_type": 0,
        "meta_classification_type": "U",
        "meta_norad_cat_id": 66910,
        "meta_element_set_no": 999,
        "meta_rev_at_epoch": 207,
        "meta_bstar": 0.00072313444,
        "meta_mean_motion_dot": 0.00044307,
        "meta_mean_motion_ddot": 0,
        "tle_line1": "1 66910U 98067XW  25349.68641401  .00044307  00000+0  72313-3 0  9991",
        "tle_line2": "2 66910  51.6293 127.7170 0004767 223.5527 136.5086 15.52120253  2079"
      },
      "geometry": {
        "type": "Point",
        "coordinates": [
          139.7740723575288,
          20.13044383575804
        ]
      }
    },
    {
      "type": "Feature",
      "properties": {
        "norad_id": 66911,
        "name": "1998-067XX",
        "group": "stations",
        "lat": 26.24204195724955,
        "lon": 145.86437790677394,
        "alt_km": 408.9895382162367,
        "timestamp": "2025-12-16T15:45:49.753038+00:00",
        "meta_object_name": "1998-067XX",
        "meta_object_id": "1998-067XX",
        "meta_epoch": "2025-12-15T13:21:12.839040",
        "meta_mean_motion": 15.52435494,
        "meta_eccentricity": 0.00044725,
        "meta_inclination": 51.6293,
        "meta_ra_of_asc_node": 128.3487,
        "meta_arg_of_pericenter": 225.8375,
        "meta_mean_anomaly": 134.2248,
        "meta_ephemeris_type": 0,
        "meta_classification_type": "U",
        "meta_norad_cat_id": 66911,
        "meta_element_set_no": 999,
        "meta_rev_at_epoch": 204,
        "meta_bstar": 0.00085850941,
        "meta_mean_motion_dot": 0.00053353,
        "meta_mean_motion_ddot": 0,
        "tle_line1": "1 66911U 98067XX  25349.55639860  .00053353  00000+0  85851-3 0  9996",
        "tle_line2": "2 66911  51.6293 128.3487 0004472 225.8375 134.2248 15.52435494  2045"
      },
      "geometry": {
        "type": "Point",
        "coordinates": [
          145.86437790677394,
          26.24204195724955
        ]
      }
    },
    {
      "type": "Feature",
      "properties": {
        "norad_id": 66912,
        "name": "1998-067XY",
        "group": "stations",
        "lat": -0.7642684783912345,
        "lon": 122.34087924700412,
        "alt_km": 414.44539916433587,
        "timestamp": "2025-12-16T15:45:49.753047+00:00",
        "meta_object_name": "1998-067XY",
        "meta_object_id": "1998-067XY",
        "meta_epoch": "2025-12-15T15:02:01.063680",
        "meta_mean_motion": 15.51430232,
        "meta_eccentricity": 0.00042771,
        "meta_inclination": 51.6298,
        "meta_ra_of_asc_node": 128.066,
        "meta_arg_of_pericenter": 239.2298,
        "meta_mean_anomaly": 120.827,
        "meta_ephemeris_type": 0,
        "meta_classification_type": "U",
        "meta_norad_cat_id": 66912,
        "meta_element_set_no": 999,
        "meta_rev_at_epoch": 205,
        "meta_bstar": 0.00059034446,
        "meta_mean_motion_dot": 0.00035151,
        "meta_mean_motion_ddot": 0,
        "tle_line1": "1 66912U 98067XY  25349.62640120  .00035151  00000+0  59034-3 0  9996",
        "tle_line2": "2 66912  51.6298 128.0660 0004277 239.2298 120.8270 15.51430232  2058"
      },
      "geometry": {
        "type": "Point",
        "coordinates": [
          122.34087924700412,
          -0.7642684783912345
        ]
      }
    }
  ]
}